{
  "type": "FeatureCollection",
  "features": [
    {
      "type": "Feature",
      "properties": {
        "norad_id": 40115,
        "name": "WORLDVIEW-3 (WV-3)",
        "group": "resource",
        "lat": 77.16892739798598,
        "lon": -79.52404788743715,
        "alt_km": 603.5465709106138,
        "timestamp": "2025-12-16T21:38:56.826848+00:00",
        "meta_object_name": "WORLDVIEW-3 (WV-3)",
        "meta_object_id": "2014-048A",
        "meta_epoch": "2025-12-16T08:16:01.376832",
        "meta_mean_motion": 14.85520725,
        "meta_eccentricity": 0.00050544,
        "meta_inclination": 97.8614,
        "meta_ra_of_asc_node": 62.5794,
        "meta_arg_of_pericenter": 173.0688,
        "meta_mean_anomaly": 187.0598,
        "meta_ephemeris_type": 0,
        "meta_classification_type": "U",
        "meta_norad_cat_id": 40115,
        "meta_element_set_no": 999,
        "meta_rev_at_epoch": 61477,
        "meta_bstar": 0.00012953657,
        "meta_mean_motion_dot": 1.065e-05,
        "meta_mean_motion_ddot": 0,
        "tle_line1": "1 40115U 14048A   25350.34446038  .00001065  00000+0  12954-3 0  9990",
        "tle_line2": "2 40115  97.8614  62.5794 0005054 173.0688 187.0598 14.85520725614770"
      },
      "geometry": {
        "type": "Point",
        "coordinates": [
          -79.52404788743715,
          77.16892739798598
        ]
      }
    },
    {
      "type": "Feature",
      "properties": {
        "norad_id": 40118,
        "name": "GAOFEN-2",
        "group": "resource",
        "lat": -24.247726200988193,
        "lon": -133.57181570228207,
        "alt_km": 634.3288639176944,
        "timestamp": "2025-12-16T21:38:56.826859+00:00",
        "meta_object_name": "GAOFEN-2",
        "meta_object_id": "2014-049A",
        "meta_epoch": "2025-12-16T07:45:15.242976",
        "meta_mean_motion": 14.80615761,
        "meta_eccentricity": 0.00086457,
        "meta_inclination": 98.0385,
        "meta_ra_of_asc_node": 49.4978,
        "meta_arg_of_pericenter": 102.9655,
        "meta_mean_anomaly": 257.2523,
        "meta_ephemeris_type": 0,
        "meta_classification_type": "U",
        "meta_norad_cat_id": 40118,
        "meta_element_set_no": 999,
        "meta_rev_at_epoch": 61217,
        "meta_bstar": 8.8991641e-05,
        "meta_mean_motion_dot": 6.3e-06,
        "meta_mean_motion_ddot": 0,
        "tle_line1": "1 40118U 14049A   25350.32309309  .00000630  00000+0  88992-4 0  9994",
        "tle_line2": "2 40118  98.0385  49.4978 0008645 102.9655 257.2523 14.80615761612173"
      },
      "geometry": {
        "type": "Point",
        "coordinates": [
          -133.57181570228207,
          -24.247726200988193
        ]
      }
    },
    {
      "type": "Feature",
      "properties": {
        "norad_id": 40143,
        "name": "YAOGAN-21",
        "group": "resource",
        "lat": 82.46623438337178,
        "lon": -73.66987184153237,
        "alt_km": 484.32339633402717,
        "timestamp": "2025-12-16T21:38:56.826870+00:00",
        "meta_object_name": "YAOGAN-21",
        "meta_object_id": "2014-053A",
        "meta_epoch": "2025-12-16T08:38:14.770752",
        "meta_mean_motion": 15.2371699,
        "meta_eccentricity": 0.00094476,
        "meta_inclination": 97.1758,
        "meta_ra_of_asc_node": 33.5158,
        "meta_arg_of_pericenter": 30.1392,
        "meta_mean_anomaly": 330.0387,
        "meta_ephemeris_type": 0,
        "meta_classification_type": "U",
        "meta_norad_cat_id": 40143,
        "meta_element_set_no": 999,
        "meta_rev_at_epoch": 62709,
        "meta_bstar": 0.00015672274,
        "meta_mean_motion_dot": 3.7e-05,
        "meta_mean_motion_ddot": 0,
        "tle_line1": "1 40143U 14053A   25350.35989318  .00003700  00000+0  15672-3 0  9999",
        "tle_line2": "2 40143  97.1758  33.5158 0009447  30.1392 330.0387 15.23716990627099"
      },
      "geometry": {
        "type": "Point",
        "coordinates": [
          -73.66987184153237,
          82.46623438337178
        ]
      }
    },
    {
      "type": "Feature",
      "properties": {
        "norad_id": 40275,
        "name": "YAOGAN-22",
        "group": "resource",
        "lat": 51.702433227096485,
        "lon": 120.47099496012106,
        "alt_km": 1201.4285521477368,
        "timestamp": "2025-12-16T21:38:56.826880+00:00",
        "meta_object_name": "YAOGAN-22",
        "meta_object_id": "2014-063A",
        "meta_epoch": "2025-12-16T08:36:13.104864",
        "meta_mean_motion": 13.15522761,
        "meta_eccentricity": 0.00059793,
        "meta_inclination": 100.7422,
        "meta_ra_of_asc_node": 133.829,
        "meta_arg_of_pericenter": 239.3709,
        "meta_mean_anomaly": 120.6813,
        "meta_ephemeris_type": 0,
        "meta_classification_type": "U",
        "meta_norad_cat_id": 40275,
        "meta_element_set_no": 999,
        "meta_rev_at_epoch": 53577,
        "meta_bstar": 7.5628252e-05,
        "meta_mean_motion_dot": -1.8e-07,
        "meta_mean_motion_ddot": 0,
        "tle_line1": "1 40275U 14063A   25350.35848501 -.00000018  00000+0  75628-4 0  9992",
        "tle_line2": "2 40275 100.7422 133.8290 0005979 239.3709 120.6813 13.15522761535776"
      },
      "geometry": {
        "type": "Point",
        "coordinates": [
          120.47099496012106,
          51.702433227096485
        ]
      }
    },
    {
      "type": "Feature",
      "properties": {
        "norad_id": 40298,
        "name": "ASNARO",
        "group": "resource",
        "lat": 75.79566772502591,
        "lon": 36.01535438068734,
        "alt_km": 496.7273787957656,
        "timestamp": "2025-12-16T21:38:56.826895+00:00",
        "meta_object_name": "ASNARO",
        "meta_object_id": "2014-070A",
        "meta_epoch": "2025-12-16T08:39:53.461152",
        "meta_mean_motion": 15.19573717,
        "meta_eccentricity": 0.00055674,
        "meta_inclination": 97.3651,
        "meta_ra_of_asc_node": 66.2191,
        "meta_arg_of_pericenter": 112.8827,
        "meta_mean_anomaly": 247.2996,
        "meta_ephemeris_type": 0,
        "meta_classification_type": "U",
        "meta_norad_cat_id": 40298,
        "meta_element_set_no": 999,
        "meta_rev_at_epoch": 61624,
        "meta_bstar": 0.00038678467,
        "meta_mean_motion_dot": 8.168e-05,
        "meta_mean_motion_ddot": 0,
        "tle_line1": "1 40298U 14070A   25350.36103543  .00008168  00000+0  38678-3 0  9992",
        "tle_line2": "2 40298  97.3651  66.2191 0005567 112.8827 247.2996 15.19573717616247"
      },
      "geometry": {
        "type": "Point",
        "coordinates": [
          36.01535438068734,
          75.79566772502591
        ]
      }
    },
    {
      "type": "Feature",
      "properties": {
        "norad_id": 40310,
        "name": "YAOGAN-24",
        "group": "resource",
        "lat": 57.29809816548889,
        "lon": -45.132522674176116,
        "alt_km": 625.4378943811225,
        "timestamp": "2025-12-16T21:38:56.826906+00:00",
        "meta_object_name": "YAOGAN-24",
        "meta_object_id": "2014-072A",
        "meta_epoch": "2025-12-16T08:05:08.992032",
        "meta_mean_motion": 14.7618641,
        "meta_eccentricity": 0.00149027,
        "meta_inclination": 98.1215,
        "meta_ra_of_asc_node": 121.4485,
        "meta_arg_of_pericenter": 127.1368,
        "meta_mean_anomaly": 233.1205,
        "meta_ephemeris_type": 0,
        "meta_classification_type": "U",
        "meta_norad_cat_id": 40310,
        "meta_element_set_no": 999,
        "meta_rev_at_epoch": 59674,
        "meta_bstar": 0.00016300769,
        "meta_mean_motion_dot": 1.076e-05,
        "meta_mean_motion_ddot": 0,
        "tle_line1": "1 40310U 14072A   25350.33690963  .00001076  00000+0  16301-3 0  9993",
        "tle_line2": "2 40310  98.1215 121.4485 0014902 127.1368 233.1205 14.76186410596740"
      },
      "geometry": {
        "type": "Point",
        "coordinates": [
          -45.132522674176116,
          57.29809816548889
        ]
      }
    },
    {
      "type": "Feature",
      "properties": {
        "norad_id": 40336,
        "name": "CBERS 4",
        "group": "resource",
        "lat": -25.987670174659407,
        "lon": 52.872651170028156,
        "alt_km": 779.8029566474861,
        "timestamp": "2025-12-16T21:38:56.826916+00:00",
        "meta_object_name": "CBERS 4",
        "meta_object_id": "2014-079A",
        "meta_epoch": "2025-12-16T08:23:19.080960",
        "meta_mean_motion": 14.35519212,
        "meta_eccentricity": 0.00017097,
        "meta_inclination": 98.331,
        "meta_ra_of_asc_node": 48.243,
        "meta_arg_of_pericenter": 107.9723,
        "meta_mean_anomaly": 252.1649,
        "meta_ephemeris_type": 0,
        "meta_classification_type": "U",
        "meta_norad_cat_id": 40336,
        "meta_element_set_no": 999,
        "meta_rev_at_epoch": 57772,
        "meta_bstar": 4.9094567e-05,
        "meta_mean_motion_dot": 9.9e-07,
        "meta_mean_motion_ddot": 0,
        "tle_line1": "1 40336U 14079A   25350.34952640  .00000099  00000+0  49095-4 0  9993",
        "tle_line2": "2 40336  98.3310  48.2430 0001709 107.9723 252.1649 14.35519212577729"
      },
      "geometry": {
        "type": "Point",
        "coordinates": [
          52.872651170028156,
          -25.987670174659407
        ]
      }
    }
  ]
}